XRISM                   
1 57800U 23137A   24160.45121989  .00008637  00000+0  65182-3 0  9996
2 57800  31.0042  68.2199 0009259 122.3953 237.7580 15.01119842 41297
